{
  "type": "FeatureCollection",
  "features": [
    {
      "type": "Feature",
      "properties": {
        "norad_id": 66488,
        "name": "STARLINK-35515",
        "group": "last-30-days",
        "lat": -40.61041980751688,
        "lon": 29.843323830466815,
        "alt_km": 417.4319542691019,
        "timestamp": "2025-12-09T16:56:35.358450+00:00",
        "meta_object_name": "STARLINK-35515",
        "meta_object_id": "2025-263D",
        "meta_epoch": "2025-12-09T12:00:02.000160",
        "meta_mean_motion": 15.50598526,
        "meta_eccentricity": 0.000137,
        "meta_inclination": 43.0003,
        "meta_ra_of_asc_node": 144.1049,
        "meta_arg_of_pericenter": 266.0176,
        "meta_mean_anomaly": 275.6982,
        "meta_ephemeris_type": 0,
        "meta_classification_type": "U",
        "meta_norad_cat_id": 66488,
        "meta_element_set_no": 999,
        "meta_rev_at_epoch": 511,
        "meta_bstar": -0.0012978,
        "meta_mean_motion_dot": -0.00075797,
        "meta_mean_motion_ddot": 0,
        "tle_line1": "1 66488U 25263D   25343.50002315 -.00075797  00000+0 -12978-2 0  9998",
        "tle_line2": "2 66488  43.0003 144.1049 0001370 266.0176 275.6982 15.50598526  5118"
      },
      "geometry": {
        "type": "Point",
        "coordinates": [
          29.843323830466815,
          -40.61041980751688
        ]
      }
    },
    {
      "type": "Feature",
      "properties": {
        "norad_id": 66489,
        "name": "STARLINK-35696",
        "group": "last-30-days",
        "lat": -41.09068585664247,
        "lon": 32.25952574148088,
        "alt_km": 417.33396075101336,
        "timestamp": "2025-12-09T16:56:35.358462+00:00",
        "meta_object_name": "STARLINK-35696",
        "meta_object_id": "2025-263E",
        "meta_epoch": "2025-12-09T12:00:02.000160",
        "meta_mean_motion": 15.50550757,
        "meta_eccentricity": 0.0001593,
        "meta_inclination": 43.0003,
        "meta_ra_of_asc_node": 144.1002,
        "meta_arg_of_pericenter": 269.0208,
        "meta_mean_anomaly": 274.6113,
        "meta_ephemeris_type": 0,
        "meta_classification_type": "U",
        "meta_norad_cat_id": 66489,
        "meta_element_set_no": 999,
        "meta_rev_at_epoch": 511,
        "meta_bstar": 0.00050546,
        "meta_mean_motion_dot": 0.00029393,
        "meta_mean_motion_ddot": 0,
        "tle_line1": "1 66489U 25263E   25343.50002315  .00029393  00000+0  50546-3 0  9992",
        "tle_line2": "2 66489  43.0003 144.1002 0001593 269.0208 274.6113 15.50550757  5113"
      },
      "geometry": {
        "type": "Point",
        "coordinates": [
          32.25952574148088,
          -41.09068585664247
        ]
      }
    },
    {
      "type": "Feature",
      "properties": {
        "norad_id": 66490,
        "name": "STARLINK-35693",
        "group": "last-30-days",
        "lat": -41.524385291037255,
        "lon": 34.73917895236109,
        "alt_km": 417.32305908302806,
        "timestamp": "2025-12-09T16:56:35.358472+00:00",
        "meta_object_name": "STARLINK-35693",
        "meta_object_id": "2025-263F",
        "meta_epoch": "2025-12-09T12:00:02.000160",
        "meta_mean_motion": 15.50560794,
        "meta_eccentricity": 0.0001588,
        "meta_inclination": 43.0003,
        "meta_ra_of_asc_node": 144.0957,
        "meta_arg_of_pericenter": 268.2336,
        "meta_mean_anomaly": 277.3102,
        "meta_ephemeris_type": 0,
        "meta_classification_type": "U",
        "meta_norad_cat_id": 66490,
        "meta_element_set_no": 999,
        "meta_rev_at_epoch": 511,
        "meta_bstar": 0.00035722,
        "meta_mean_motion_dot": 0.00020656,
        "meta_mean_motion_ddot": 0,
        "tle_line1": "1 66490U 25263F   25343.50002315  .00020656  00000+0  35722-3 0  9996",
        "tle_line2": "2 66490  43.0003 144.0957 0001588 268.2336 277.3102 15.50560794  5110"
      },
      "geometry": {
        "type": "Point",
        "coordinates": [
          34.73917895236109,
          -41.524385291037255
        ]
      }
    },
    {
      "type": "Feature",
      "properties": {
        "norad_id": 66491,
        "name": "STARLINK-35663",
        "group": "last-30-days",
        "lat": -42.23068077733282,
        "lon": 39.810834809812974,
        "alt_km": 417.40770073995736,
        "timestamp": "2025-12-09T16:56:35.358483+00:00",
        "meta_object_name": "STARLINK-35663",
        "meta_object_id": "2025-263G",
        "meta_epoch": "2025-12-09T12:00:02.000160",
        "meta_mean_motion": 15.50560913,
        "meta_eccentricity": 0.0001568,
        "meta_inclination": 43.0004,
        "meta_ra_of_asc_node": 144.0857,
        "meta_arg_of_pericenter": 267.483,
        "meta_mean_anomaly": 281.9218,
        "meta_ephemeris_type": 0,
        "meta_classification_type": "U",
        "meta_norad_cat_id": 66491,
        "meta_element_set_no": 999,
        "meta_rev_at_epoch": 511,
        "meta_bstar": -0.00054973,
        "meta_mean_motion_dot": -0.00032438,
        "meta_mean_motion_ddot": 0,
        "tle_line1": "1 66491U 25263G   25343.50002315 -.00032438  00000+0 -54973-3 0  9999",
        "tle_line2": "2 66491  43.0004 144.0857 0001568 267.4830 281.9218 15.50560913  5111"
      },
      "geometry": {
        "type": "Point",
        "coordinates": [
          39.810834809812974,
          -42.23068077733282
        ]
      }
    },
    {
      "type": "Feature",
      "properties": {
        "norad_id": 66492,
        "name": "STARLINK-35673",
        "group": "last-30-days",
        "lat": -42.14337957065242,
        "lon": 39.07666941755863,
        "alt_km": 424.6744444755859,
        "timestamp": "2025-12-09T16:56:35.358493+00:00",
        "meta_object_name": "STARLINK-35673",
        "meta_object_id": "2025-263H",
        "meta_epoch": "2025-12-09T12:00:02.000160",
        "meta_mean_motion": 15.49031773,
        "meta_eccentricity": 0.0001149,
        "meta_inclination": 43.0004,
        "meta_ra_of_asc_node": 144.0826,
        "meta_arg_of_pericenter": 283.4389,
        "meta_mean_anomaly": 266.8932,
        "meta_ephemeris_type": 0,
        "meta_classification_type": "U",
        "meta_norad_cat_id": 66492,
        "meta_element_set_no": 999,
        "meta_rev_at_epoch": 511,
        "meta_bstar": -0.041061,
        "meta_mean_motion_dot": -0.02032087,
        "meta_mean_motion_ddot": 0,
        "tle_line1": "1 66492U 25263H   25343.50002315 -.02032087  00000+0 -41061-1 0  9994",
        "tle_line2": "2 66492  43.0004 144.0826 0001149 283.4389 266.8932 15.49031773  5110"
      },
      "geometry": {
        "type": "Point",
        "coordinates": [
          39.07666941755863,
          -42.14337957065242
        ]
      }
    },
    {
      "type": "Feature",
      "properties": {
        "norad_id": 66493,
        "name": "STARLINK-35597",
        "group": "last-30-days",
        "lat": -42.70541766308049,
        "lon": 44.941136478757244,
        "alt_km": 417.4422147852538,
        "timestamp": "2025-12-09T16:56:35.358505+00:00",
        "meta_object_name": "STARLINK-35597",
        "meta_object_id": "2025-263J",
        "meta_epoch": "2025-12-09T12:00:02.000160",
        "meta_mean_motion": 15.50566268,
        "meta_eccentricity": 0.0001513,
        "meta_inclination": 43.0003,
        "meta_ra_of_asc_node": 144.0753,
        "meta_arg_of_pericenter": 259.8995,
        "meta_mean_anomaly": 293.3255,
        "meta_ephemeris_type": 0,
        "meta_classification_type": "U",
        "meta_norad_cat_id": 66493,
        "meta_element_set_no": 999,
        "meta_rev_at_epoch": 511,
        "meta_bstar": -0.00061491,
        "meta_mean_motion_dot": -0.00036232,
        "meta_mean_motion_ddot": 0,
        "tle_line1": "1 66493U 25263J   25343.50002315 -.00036232  00000+0 -61491-3 0  9990",
        "tle_line2": "2 66493  43.0003 144.0753 0001513 259.8995 293.3255 15.50566268  5111"
      },
      "geometry": {
        "type": "Point",
        "coordinates": [
          44.941136478757244,
          -42.70541766308049
        ]
      }
    },
    {
      "type": "Feature",
      "properties": {
        "norad_id": 66494,
        "name": "STARLINK-35689",
        "group": "last-30-days",
        "lat": -41.90488090289528,
        "lon": 37.256432282692025,
        "alt_km": 417.4109364439746,
        "timestamp": "2025-12-09T16:56:35.358515+00:00",
        "meta_object_name": "STARLINK-35689",
        "meta_object_id": "2025-263K",
        "meta_epoch": "2025-12-09T12:00:02.000160",
        "meta_mean_motion": 15.50564642,
        "meta_eccentricity": 0.0001522,
        "meta_inclination": 43.0004,
        "meta_ra_of_asc_node": 144.0913,
        "meta_arg_of_pericenter": 266.196,
        "meta_mean_anomaly": 281.2743,
        "meta_ephemeris_type": 0,
        "meta_classification_type": "U",
        "meta_norad_cat_id": 66494,
        "meta_element_set_no": 999,
        "meta_rev_at_epoch": 511,
        "meta_bstar": -0.00046801,
        "meta_mean_motion_dot": -0.00027686,
        "meta_mean_motion_ddot": 0,
        "tle_line1": "1 66494U 25263K   25343.50002315 -.00027686  00000+0 -46801-3 0  9992",
        "tle_line2": "2 66494  43.0004 144.0913 0001522 266.1960 281.2743 15.50564642  5116"
      },
      "geometry": {
        "type": "Point",
        "coordinates": [
          37.256432282692025,
          -41.90488090289528
        ]
      }
    }
  ]
}